{
  "type": "FeatureCollection",
  "features": [
    {
      "type": "Feature",
      "properties": {
        "norad_id": 35961,
        "name": "COSMOS 2251 DEB",
        "group": "cosmos-2251-debris",
        "lat": 32.91202150224201,
        "lon": -164.77452599112286,
        "alt_km": 848.1393322604881,
        "timestamp": "2025-12-23T22:42:33.382685+00:00",
        "meta_object_name": "COSMOS 2251 DEB",
        "meta_object_id": "1993-036AVB",
        "meta_epoch": "2025-12-22T19:12:43.394400",
        "meta_mean_motion": 14.05439658,
        "meta_eccentricity": 0.01916927,
        "meta_inclination": 73.9252,
        "meta_ra_of_asc_node": 186.4844,
        "meta_arg_of_pericenter": 117.7198,
        "meta_mean_anomaly": 244.353,
        "meta_ephemeris_type": 0,
        "meta_classification_type": "U",
        "meta_norad_cat_id": 35961,
        "meta_element_set_no": 999,
        "meta_rev_at_epoch": 62823,
        "meta_bstar": 0.0013472603,
        "meta_mean_motion_dot": 2.556e-05,
        "meta_mean_motion_ddot": 0,
        "tle_line1": "1 35961U 93036AVB 25356.80050225  .00002556  00000+0  13473-2 0  9995",
        "tle_line2": "2 35961  73.9252 186.4844 0191692 117.7198 244.3530 14.05439658628238"
      },
      "geometry": {
        "type": "Point",
        "coordinates": [
          -164.77452599112286,
          32.91202150224201
        ]
      }
    },
    {
      "type": "Feature",
      "properties": {
        "norad_id": 35979,
        "name": "COSMOS 2251 DEB",
        "group": "cosmos-2251-debris",
        "lat": -16.927390238016514,
        "lon": 41.465869810598214,
        "alt_km": 685.9445513326791,
        "timestamp": "2025-12-23T22:42:33.382695+00:00",
        "meta_object_name": "COSMOS 2251 DEB",
        "meta_object_id": "1993-036AVV",
        "meta_epoch": "2025-12-22T21:28:01.748352",
        "meta_mean_motion": 14.74747539,
        "meta_eccentricity": 0.0059307,
        "meta_inclination": 74.008,
        "meta_ra_of_asc_node": 218.5159,
        "meta_arg_of_pericenter": 348.3492,
        "meta_mean_anomaly": 27.9615,
        "meta_ephemeris_type": 0,
        "meta_classification_type": "U",
        "meta_norad_cat_id": 35979,
        "meta_element_set_no": 999,
        "meta_rev_at_epoch": 88783,
        "meta_bstar": 0.00076773,
        "meta_mean_motion_dot": 5.251e-05,
        "meta_mean_motion_ddot": 0,
        "tle_line1": "1 35979U 93036AVV 25356.89446468  .00005251  00000+0  76773-3 0  9999",
        "tle_line2": "2 35979  74.0080 218.5159 0059307 348.3492  27.9615 14.74747539887837"
      },
      "geometry": {
        "type": "Point",
        "coordinates": [
          41.465869810598214,
          -16.927390238016514
        ]
      }
    },
    {
      "type": "Feature",
      "properties": {
        "norad_id": 35980,
        "name": "COSMOS 2251 DEB",
        "group": "cosmos-2251-debris",
        "lat": 1.8581345505075668,
        "lon": -79.37693762915133,
        "alt_km": 675.9662838795302,
        "timestamp": "2025-12-23T22:42:33.382705+00:00",
        "meta_object_name": "COSMOS 2251 DEB",
        "meta_object_id": "1993-036AVW",
        "meta_epoch": "2025-12-21T00:47:41.997408",
        "meta_mean_motion": 14.59403711,
        "meta_eccentricity": 0.00538655,
        "meta_inclination": 73.9127,
        "meta_ra_of_asc_node": 106.7527,
        "meta_arg_of_pericenter": 240.1949,
        "meta_mean_anomaly": 119.3854,
        "meta_ephemeris_type": 0,
        "meta_classification_type": "U",
        "meta_norad_cat_id": 35980,
        "meta_element_set_no": 999,
        "meta_rev_at_epoch": 61607,
        "meta_bstar": 0.00094415254,
        "meta_mean_motion_dot": 4.534e-05,
        "meta_mean_motion_ddot": 0,
        "tle_line1": "1 35980U 93036AVW 25355.03312497  .00004534  00000+0  94415-3 0  9996",
        "tle_line2": "2 35980  73.9127 106.7527 0053865 240.1949 119.3854 14.59403711616076"
      },
      "geometry": {
        "type": "Point",
        "coordinates": [
          -79.37693762915133,
          1.8581345505075668
        ]
      }
    },
    {
      "type": "Feature",
      "properties": {
        "norad_id": 35982,
        "name": "COSMOS 2251 DEB",
        "group": "cosmos-2251-debris",
        "lat": -55.629559395050684,
        "lon": 170.18074345666685,
        "alt_km": 729.9670371708171,
        "timestamp": "2025-12-23T22:42:33.382714+00:00",
        "meta_object_name": "COSMOS 2251 DEB",
        "meta_object_id": "1993-036AVY",
        "meta_epoch": "2025-12-21T08:53:22.101216",
        "meta_mean_motion": 14.62796302,
        "meta_eccentricity": 0.00644452,
        "meta_inclination": 74.0583,
        "meta_ra_of_asc_node": 330.4066,
        "meta_arg_of_pericenter": 34.1969,
        "meta_mean_anomaly": 326.3322,
        "meta_ephemeris_type": 0,
        "meta_classification_type": "U",
        "meta_norad_cat_id": 35982,
        "meta_element_set_no": 999,
        "meta_rev_at_epoch": 86292,
        "meta_bstar": 0.00048464355,
        "meta_mean_motion_dot": 2.517e-05,
        "meta_mean_motion_ddot": 0,
        "tle_line1": "1 35982U 93036AVY 25355.37039469  .00002517  00000+0  48464-3 0  9992",
        "tle_line2": "2 35982  74.0583 330.4066 0064445  34.1969 326.3322 14.62796302862921"
      },
      "geometry": {
        "type": "Point",
        "coordinates": [
          170.18074345666685,
          -55.629559395050684
        ]
      }
    },
    {
      "type": "Feature",
      "properties": {
        "norad_id": 35987,
        "name": "COSMOS 2251 DEB",
        "group": "cosmos-2251-debris",
        "lat": 16.939786967221824,
        "lon": 120.76998416694884,
        "alt_km": 750.3803976349727,
        "timestamp": "2025-12-23T22:42:33.382724+00:00",
        "meta_object_name": "COSMOS 2251 DEB",
        "meta_object_id": "1993-036AWD",
        "meta_epoch": "2025-12-21T03:25:05.273760",
        "meta_mean_motion": 14.43173107,
        "meta_eccentricity": 0.00462099,
        "meta_inclination": 74.0005,
        "meta_ra_of_asc_node": 311.0003,
        "meta_arg_of_pericenter": 74.0129,
        "meta_mean_anomaly": 286.6111,
        "meta_ephemeris_type": 0,
        "meta_classification_type": "U",
        "meta_norad_cat_id": 35987,
        "meta_element_set_no": 999,
        "meta_rev_at_epoch": 61186,
        "meta_bstar": 0.00065128022,
        "meta_mean_motion_dot": 2.191e-05,
        "meta_mean_motion_ddot": 0,
        "tle_line1": "1 35987U 93036AWD 25355.14242215  .00002191  00000+0  65128-3 0  9991",
        "tle_line2": "2 35987  74.0005 311.0003 0046209  74.0129 286.6111 14.43173107611860"
      },
      "geometry": {
        "type": "Point",
        "coordinates": [
          120.76998416694884,
          16.939786967221824
        ]
      }
    },
    {
      "type": "Feature",
      "properties": {
        "norad_id": 35989,
        "name": "COSMOS 2251 DEB",
        "group": "cosmos-2251-debris",
        "lat": -35.71265106414814,
        "lon": -108.64914861633551,
        "alt_km": 758.9287026904694,
        "timestamp": "2025-12-23T22:42:33.382734+00:00",
        "meta_object_name": "COSMOS 2251 DEB",
        "meta_object_id": "1993-036AWF",
        "meta_epoch": "2025-12-21T00:42:48.161376",
        "meta_mean_motion": 14.37112482,
        "meta_eccentricity": 0.00223748,
        "meta_inclination": 74.0376,
        "meta_ra_of_asc_node": 268.5863,
        "meta_arg_of_pericenter": 348.5916,
        "meta_mean_anomaly": 11.4727,
        "meta_ephemeris_type": 0,
        "meta_classification_type": "U",
        "meta_norad_cat_id": 35989,
        "meta_element_set_no": 999,
        "meta_rev_at_epoch": 87298,
        "meta_bstar": 0.00015604931,
        "meta_mean_motion_dot": 4.39e-06,
        "meta_mean_motion_ddot": 0,
        "tle_line1": "1 35989U 93036AWF 25355.02972409  .00000439  00000+0  15605-3 0  9993",
        "tle_line2": "2 35989  74.0376 268.5863 0022374 348.5916  11.4727 14.37112482872984"
      },
      "geometry": {
        "type": "Point",
        "coordinates": [
          -108.64914861633551,
          -35.71265106414814
        ]
      }
    },
    {
      "type": "Feature",
      "properties": {
        "norad_id": 35993,
        "name": "COSMOS 2251 DEB",
        "group": "cosmos-2251-debris",
        "lat": -70.90122462666027,
        "lon": -172.91958762494312,
        "alt_km": 693.4510096426484,
        "timestamp": "2025-12-23T22:42:33.382744+00:00",
        "meta_object_name": "COSMOS 2251 DEB",
        "meta_object_id": "1993-036AWK",
        "meta_epoch": "2025-12-21T03:59:29.501088",
        "meta_mean_motion": 14.65356197,
        "meta_eccentricity": 0.0028516,
        "meta_inclination": 74.0154,
        "meta_ra_of_asc_node": 316.5577,
        "meta_arg_of_pericenter": 143.4068,
        "meta_mean_anomaly": 216.9056,
        "meta_ephemeris_type": 0,
        "meta_classification_type": "U",
        "meta_norad_cat_id": 35993,
        "meta_element_set_no": 999,
        "meta_rev_at_epoch": 60566,
        "meta_bstar": 0.00046927088,
        "meta_mean_motion_dot": 2.519e-05,
        "meta_mean_motion_ddot": 0,
        "tle_line1": "1 35993U 93036AWK 25355.16631367  .00002519  00000+0  46927-3 0  9990",
        "tle_line2": "2 35993  74.0154 316.5577 0028516 143.4068 216.9056 14.65356197605663"
      },
      "geometry": {
        "type": "Point",
        "coordinates": [
          -172.91958762494312,
          -70.90122462666027
        ]
      }
    }
  ]
}